[{"OBJECT_NAME":"AFR-1","OBJECT_ID":"2023-084AJ","EPOCH":"2026-03-09T23:02:07.499328","MEAN_MOTION":15.27543824,"ECCENTRICITY":0.00099838,"INCLINATION":97.6099,"RA_OF_ASC_NODE":203.4313,"ARG_OF_PERICENTER":334.9676,"MEAN_ANOMALY":25.1077,"EPHEMERIS_TYPE":0,"CLASSIFICATION_TYPE":"U","NORAD_CAT_ID":56964,"ELEMENT_SET_NO":999,"REV_AT_EPOCH":15207,"BSTAR":0.00024843733,"MEAN_MOTION_DOT":6.624e-5,"MEAN_MOTION_DDOT":0},{"OBJECT_NAME":"STARLINK-33613","OBJECT_ID":"2025-053X","EPOCH":"2026-03-09T12:11:06.722016","MEAN_MOTION":15.27620712,"ECCENTRICITY":0.00013561,"INCLINATION":42.9944,"RA_OF_ASC_NODE":242.9737,"ARG_OF_PERICENTER":287.6156,"MEAN_ANOMALY":72.4548,"EPHEMERIS_TYPE":0,"CLASSIFICATION_TYPE":"U","NORAD_CAT_ID":63286,"ELEMENT_SET_NO":999,"REV_AT_EPOCH":5616,"BSTAR":0.00092726252,"MEAN_MOTION_DOT":0.00025374,"MEAN_MOTION_DDOT":0}]
